CCSDS_OMM_VERS = 2.0
CREATION_DATE  = 
ORIGINATOR     = 

OBJECT_NAME    = STARLINK-36068
OBJECT_ID      = 2025-280AA
CENTER_NAME    = EARTH
REF_FRAME      = TEME
TIME_SYSTEM    = UTC
MEAN_ELEMENT_THEORY = SGP/SGP4

EPOCH          = 2025-12-28T20:05:28.176288
MEAN_MOTION    = 15.52475460
ECCENTRICITY   = .0003494
INCLINATION    = 70.0005
RA_OF_ASC_NODE = 154.2635
ARG_OF_PERICENTER = 266.6068
MEAN_ANOMALY   = 93.4719

EPHEMERIS_TYPE = 0
CLASSIFICATION_TYPE = U
NORAD_CAT_ID   = 66845
ELEMENT_SET_NO = 999
REV_AT_EPOCH   = 543
BSTAR          = .42746E-3
MEAN_MOTION_DOT = .26176E-3
MEAN_MOTION_DDOT = 0

CCSDS_OMM_VERS = 2.0
CREATION_DATE  = 
ORIGINATOR     = 

OBJECT_NAME    = STARLINK-36055
OBJECT_ID      = 2025-280AB
CENTER_NAME    = EARTH
REF_FRAME      = TEME
TIME_SYSTEM    = UTC
MEAN_ELEMENT_THEORY = SGP/SGP4

EPOCH          = 2025-12-28T20:00:01.000224
MEAN_MOTION    = 15.45460501
ECCENTRICITY   = .0003345
INCLINATION    = 70.0004
RA_OF_ASC_NODE = 154.3000
ARG_OF_PERICENTER = 274.9989
MEAN_ANOMALY   = 40.4397

EPHEMERIS_TYPE = 0
CLASSIFICATION_TYPE = U
NORAD_CAT_ID   = 66846
ELEMENT_SET_NO = 999
REV_AT_EPOCH   = 548
BSTAR          = -.47029E-1
MEAN_MOTION_DOT = -.2015917E-1
MEAN_MOTION_DDOT = 0

CCSDS_OMM_VERS = 2.0
CREATION_DATE  = 
ORIGINATOR     = 

OBJECT_NAME    = STARLINK-36061
OBJECT_ID      = 2025-280AC
CENTER_NAME    = EARTH
REF_FRAME      = TEME
TIME_SYSTEM    = UTC
MEAN_ELEMENT_THEORY = SGP/SGP4

EPOCH          = 2025-12-28T20:00:01.000224
MEAN_MOTION    = 15.46193687
ECCENTRICITY   = .0003458
INCLINATION    = 70.0001
RA_OF_ASC_NODE = 154.2928
ARG_OF_PERICENTER = 274.2598
MEAN_ANOMALY   = 47.0178

EPHEMERIS_TYPE = 0
CLASSIFICATION_TYPE = U
NORAD_CAT_ID   = 66847
ELEMENT_SET_NO = 999
REV_AT_EPOCH   = 543
BSTAR          = -.45399E-1
MEAN_MOTION_DOT = -.1998116E-1
MEAN_MOTION_DDOT = 0

CCSDS_OMM_VERS = 2.0
CREATION_DATE  = 
ORIGINATOR     = 

OBJECT_NAME    = STARLINK-36091
OBJECT_ID      = 2025-281A
CENTER_NAME    = EARTH
REF_FRAME      = TEME
TIME_SYSTEM    = UTC
MEAN_ELEMENT_THEORY = SGP/SGP4

EPOCH          = 2025-12-28T20:00:01.000224
MEAN_MOTION    = 15.50575417
ECCENTRICITY   = .0001401
INCLINATION    = 43.0009
RA_OF_ASC_NODE = 25.5455
ARG_OF_PERICENTER = 261.5185
MEAN_ANOMALY   = 220.0169

EPHEMERIS_TYPE = 0
CLASSIFICATION_TYPE = U
NORAD_CAT_ID   = 66848
ELEMENT_SET_NO = 999
REV_AT_EPOCH   = 397
BSTAR          = -.44944E-3
MEAN_MOTION_DOT = -.26615E-3
MEAN_MOTION_DDOT = 0

CCSDS_OMM_VERS = 2.0
CREATION_DATE  = 
ORIGINATOR     = 

OBJECT_NAME    = STARLINK-36102
OBJECT_ID      = 2025-281B
CENTER_NAME    = EARTH
REF_FRAME      = TEME
TIME_SYSTEM    = UTC
MEAN_ELEMENT_THEORY = SGP/SGP4

EPOCH          = 2025-12-28T20:00:01.000224
MEAN_MOTION    = 15.50577887
ECCENTRICITY   = .00013
INCLINATION    = 43.0008
RA_OF_ASC_NODE = 25.5402
ARG_OF_PERICENTER = 259.5404
MEAN_ANOMALY   = 223.9093

EPHEMERIS_TYPE = 0
CLASSIFICATION_TYPE = U
NORAD_CAT_ID   = 66849
ELEMENT_SET_NO = 999
REV_AT_EPOCH   = 397
BSTAR          = -.56282E-3
MEAN_MOTION_DOT = -.33218E-3
MEAN_MOTION_DDOT = 0

CCSDS_OMM_VERS = 2.0
CREATION_DATE  = 
ORIGINATOR     = 

OBJECT_NAME    = STARLINK-36105
OBJECT_ID      = 2025-281C
CENTER_NAME    = EARTH
REF_FRAME      = TEME
TIME_SYSTEM    = UTC
MEAN_ELEMENT_THEORY = SGP/SGP4

EPOCH          = 2025-12-28T20:00:01.000224
MEAN_MOTION    = 15.50588971
ECCENTRICITY   = .0001288
INCLINATION    = 43.0008
RA_OF_ASC_NODE = 25.5352
ARG_OF_PERICENTER = 266.1215
MEAN_ANOMALY   = 219.2425

EPHEMERIS_TYPE = 0
CLASSIFICATION_TYPE = U
NORAD_CAT_ID   = 66850
ELEMENT_SET_NO = 999
REV_AT_EPOCH   = 397
BSTAR          = -.11216E-2
MEAN_MOTION_DOT = -.65612E-3
MEAN_MOTION_DDOT = 0

CCSDS_OMM_VERS = 2.0
CREATION_DATE  = 
ORIGINATOR     = 

OBJECT_NAME    = STARLINK-36094
OBJECT_ID      = 2025-281D
CENTER_NAME    = EARTH
REF_FRAME      = TEME
TIME_SYSTEM    = UTC
MEAN_ELEMENT_THEORY = SGP/SGP4

EPOCH          = 2025-12-28T20:00:01.000224
MEAN_MOTION    = 15.50615171
ECCENTRICITY   = .0001312
INCLINATION    = 43.0009
RA_OF_ASC_NODE = 25.5306
ARG_OF_PERICENTER = 263.4294
MEAN_ANOMALY   = 223.8462

EPHEMERIS_TYPE = 0
CLASSIFICATION_TYPE = U
NORAD_CAT_ID   = 66851
ELEMENT_SET_NO = 999
REV_AT_EPOCH   = 397
BSTAR          = -.20097E-2
MEAN_MOTION_DOT = -.116651E-2
MEAN_MOTION_DDOT = 0

CCSDS_OMM_VERS = 2.0
CREATION_DATE  = 
ORIGINATOR     = 

OBJECT_NAME    = STARLINK-35992
OBJECT_ID      = 2025-281E
CENTER_NAME    = EARTH
REF_FRAME      = TEME
TIME_SYSTEM    = UTC
MEAN_ELEMENT_THEORY = SGP/SGP4

EPOCH          = 2025-12-28T20:00:01.000224
MEAN_MOTION    = 15.50594515
ECCENTRICITY   = .000064
INCLINATION    = 43.0010
RA_OF_ASC_NODE = 25.5262
ARG_OF_PERICENTER = 256.3966
MEAN_ANOMALY   = 232.8035

EPHEMERIS_TYPE = 0
CLASSIFICATION_TYPE = U
NORAD_CAT_ID   = 66852
ELEMENT_SET_NO = 999
REV_AT_EPOCH   = 397
BSTAR          = -.13606E-2
MEAN_MOTION_DOT = -.79397E-3
MEAN_MOTION_DDOT = 0

CCSDS_OMM_VERS = 2.0
CREATION_DATE  = 
ORIGINATOR     = 

OBJECT_NAME    = STARLINK-35986
OBJECT_ID      = 2025-281F
CENTER_NAME    = EARTH
REF_FRAME      = TEME
TIME_SYSTEM    = UTC
MEAN_ELEMENT_THEORY = SGP/SGP4

EPOCH          = 2025-12-28T20:00:01.000224
MEAN_MOTION    = 15.50594178
ECCENTRICITY   = .0000783
INCLINATION    = 43.0010
RA_OF_ASC_NODE = 25.5214
ARG_OF_PERICENTER = 257.6656
MEAN_ANOMALY   = 233.4522

EPHEMERIS_TYPE = 0
CLASSIFICATION_TYPE = U
NORAD_CAT_ID   = 66853
ELEMENT_SET_NO = 999
REV_AT_EPOCH   = 397
BSTAR          = -.13725E-2
MEAN_MOTION_DOT = -.8008E-3
MEAN_MOTION_DDOT = 0

CCSDS_OMM_VERS = 2.0
CREATION_DATE  = 
ORIGINATOR     = 

OBJECT_NAME    = STARLINK-36087
OBJECT_ID      = 2025-281G
CENTER_NAME    = EARTH
REF_FRAME      = TEME
TIME_SYSTEM    = UTC
MEAN_ELEMENT_THEORY = SGP/SGP4

EPOCH          = 2025-12-28T20:00:01.000224
MEAN_MOTION    = 15.50955003
ECCENTRICITY   = .0000493
INCLINATION    = 43.0010
RA_OF_ASC_NODE = 25.5159
ARG_OF_PERICENTER = 267.7033
MEAN_ANOMALY   = 225.2591

EPHEMERIS_TYPE = 0
CLASSIFICATION_TYPE = U
NORAD_CAT_ID   = 66854
ELEMENT_SET_NO = 999
REV_AT_EPOCH   = 397
BSTAR          = -.96726E-2
MEAN_MOTION_DOT = -.537557E-2
MEAN_MOTION_DDOT = 0

CCSDS_OMM_VERS = 2.0
CREATION_DATE  = 
ORIGINATOR     = 

OBJECT_NAME    = STARLINK-36090
OBJECT_ID      = 2025-281H
CENTER_NAME    = EARTH
REF_FRAME      = TEME
TIME_SYSTEM    = UTC
MEAN_ELEMENT_THEORY = SGP/SGP4

EPOCH          = 2025-12-28T20:00:01.000224
MEAN_MOTION    = 15.50710765
ECCENTRICITY   = .0000176
INCLINATION    = 43.0009
RA_OF_ASC_NODE = 25.5111
ARG_OF_PERICENTER = 37.5194
MEAN_ANOMALY   = 97.4626

EPHEMERIS_TYPE = 0
CLASSIFICATION_TYPE = U
NORAD_CAT_ID   = 66855
ELEMENT_SET_NO = 999
REV_AT_EPOCH   = 384
BSTAR          = -.47854E-2
MEAN_MOTION_DOT = -.272762E-2
MEAN_MOTION_DDOT = 0

CCSDS_OMM_VERS = 2.0
CREATION_DATE  = 
ORIGINATOR     = 

OBJECT_NAME    = STARLINK-36072
OBJECT_ID      = 2025-281J
CENTER_NAME    = EARTH
REF_FRAME      = TEME
TIME_SYSTEM    = UTC
MEAN_ELEMENT_THEORY = SGP/SGP4

EPOCH          = 2025-12-28T20:00:01.000224
MEAN_MOTION    = 15.50652642
ECCENTRICITY   = .0001942
INCLINATION    = 43.0009
RA_OF_ASC_NODE = 25.5057
ARG_OF_PERICENTER = 260.9142
MEAN_ANOMALY   = 236.0396

EPHEMERIS_TYPE = 0
CLASSIFICATION_TYPE = U
NORAD_CAT_ID   = 66856
ELEMENT_SET_NO = 999
REV_AT_EPOCH   = 397
BSTAR          = -.37395E-2
MEAN_MOTION_DOT = -.214398E-2
MEAN_MOTION_DDOT = 0

