STARLINK-36068          
1 66845U 25280AA  25362.83713167  .00026176  00000+0  42746-3 0  9997
2 66845  70.0005 154.2635 0003494 266.6068  93.4719 15.52475460  5437
STARLINK-36055          
1 66846U 25280AB  25362.83334491 -.02015917  00000+0 -47029-1 0  9999
2 66846  70.0004 154.3000 0003345 274.9989  40.4397 15.45460501  5484
STARLINK-36061          
1 66847U 25280AC  25362.83334491 -.01998116  00000+0 -45399-1 0  9998
2 66847  70.0001 154.2928 0003458 274.2598  47.0178 15.46193687  5438
STARLINK-36091          
1 66848U 25281A   25362.83334491 -.00026615  00000+0 -44944-3 0  9992
2 66848  43.0009  25.5455 0001401 261.5185 220.0169 15.50575417  3979
STARLINK-36102          
1 66849U 25281B   25362.83334491 -.00033218  00000+0 -56282-3 0  9998
2 66849  43.0008  25.5402 0001300 259.5404 223.9093 15.50577887  3971
STARLINK-36105          
1 66850U 25281C   25362.83334491 -.00065612  00000+0 -11216-2 0  9990
2 66850  43.0008  25.5352 0001288 266.1215 219.2425 15.50588971  3979
STARLINK-36094          
1 66851U 25281D   25362.83334491 -.00116651  00000+0 -20097-2 0  9998
2 66851  43.0009  25.5306 0001312 263.4294 223.8462 15.50615171  3970
STARLINK-35992          
1 66852U 25281E   25362.83334491 -.00079397  00000+0 -13606-2 0  9992
2 66852  43.0010  25.5262 0000640 256.3966 232.8035 15.50594515  3978
STARLINK-35986          
1 66853U 25281F   25362.83334491 -.00080080  00000+0 -13725-2 0  9996
2 66853  43.0010  25.5214 0000783 257.6656 233.4522 15.50594178  3977
STARLINK-36087          
1 66854U 25281G   25362.83334491 -.00537557  00000+0 -96726-2 0  9995
2 66854  43.0010  25.5159 0000493 267.7033 225.2591 15.50955003  3978
STARLINK-36090          
1 66855U 25281H   25362.83334491 -.00272762  00000+0 -47854-2 0  9998
2 66855  43.0009  25.5111 0000176  37.5194  97.4626 15.50710765  3842
STARLINK-36072          
1 66856U 25281J   25362.83334491 -.00214398  00000+0 -37395-2 0  9999
2 66856  43.0009  25.5057 0001942 260.9142 236.0396 15.50652642  3977
